DMSP 5D-3 F16 (USA 172) 
1 28054U 03048A   26176.53004095 -.00000007  00000+0  20053-4 0  9993
2 28054  98.9888 200.4135 0008060 119.2804  36.1429 14.14483534170667
METEOSAT-9 (MSG-2)      
1 28912U 05049B   26175.82105308  .00000124  00000+0  00000+0 0  9993
2 28912   9.3787  54.0944 0001986 354.4974 205.6577  1.00276585  7074
DMSP 5D-3 F17 (USA 191) 
1 29522U 06050A   26176.51362677  .00000021  00000+0  32985-4 0  9993
2 29522  98.7378 182.9134 0010838  37.6894 322.5037 14.14993851 13606
FENGYUN 3A              
1 32958U 08026A   26176.43487006  .00000065  00000+0  51489-4 0  9998
2 32958  98.6884 117.1139 0009858 102.3633 257.8647 14.19572740936572
GOES 14                 
1 35491U 09033A   26176.58725306 -.00000311  00000+0  00000+0 0  9999
2 35491   1.7122  82.9509 0002212  17.8256 161.2935  1.00108737  6679
DMSP 5D-3 F18 (USA 210) 
1 35951U 09057A   26176.55626616  .00000249  00000+0  15222-3 0  9992
2 35951  98.9040 157.3073 0010144 223.1541 136.8838 14.14901364860777
EWS-G2 (GOES 15)        
1 36411U 10008A   26176.01066831  .00000029  00000+0  00000+0 0  9990
2 36411   1.2993  82.7471 0005214  42.2541 215.5751  1.00267909 59712
COMS 1                  
1 36744U 10032A   26176.36016859  .00000067  00000+0  00000+0 0  9991
2 36744   4.8261  75.2625 0011894  12.7846 355.9585  0.99165844 51175
FENGYUN 3B              
1 37214U 10059A   26176.59746876  .00000040  00000+0  43732-4 0  9992
2 37214  98.9620 222.6479 0022387 160.1059   0.8654 14.14842468808617
SUOMI NPP               
1 37849U 11061A   26176.58740855  .00000063  00000+0  50833-4 0  9995
2 37849  98.7954 117.4061 0001055 343.2637  16.8503 14.19519032759632
METEOSAT-10 (MSG-3)     
1 38552U 12035B   26176.31114292 -.00000001  00000+0  00000+0 0  9999
2 38552   4.6909  60.9870 0001721   7.2984 317.3776  1.00268265 50935
METOP-B                 
1 38771U 12049A   26176.49576751  .00000096  00000+0  63909-4 0  9993
2 38771  98.6500 227.8291 0001714 355.8273   4.2890 14.21441451714443
INSAT-3D                
1 39216U 13038B   26176.58725306 -.00000330  00000+0  00000+0 0  9999
2 39216   1.9480  82.4454 0001123 359.6800 172.5285  1.00272381 47162
FENGYUN 3C              
1 39260U 13052A   26176.59530111  .00000087  00000+0  65247-4 0  9990
2 39260  98.4982 150.0841 0014748   4.1671 355.9624 14.15756865659758
METEOR-M 2              
1 40069U 14037A   26176.59240105 -.00000198  00000+0 -71344-4 0  9994
2 40069  98.5114 152.0328 0006405  23.2990 336.8477 14.21462562620515
HIMAWARI-8              
1 40267U 14060A   26176.55282400 -.00000266  00000+0  00000+0 0  9991
2 40267   0.0169 304.3609 0001527 152.0219 156.9722  1.00270889 42842
FENGYUN 2G              
1 40367U 14090A   26176.16919925 -.00000297  00000+0  00000+0 0  9995
2 40367   5.6596  72.7239 0003592 151.5998 209.5585  1.00269529 42082
METEOSAT-11 (MSG-4)     
1 40732U 15034A   26176.31296293  .00000069  00000+0  00000+0 0  9999
2 40732   3.2209  71.0582 0002284 347.1875 337.3344  1.00265611  7295
ELEKTRO-L 2             
1 41105U 15074A   26175.45272256 -.00000115  00000+0  00000+0 0  9998
2 41105   6.7126  70.4366 0000704 278.7793  71.8306  1.00271170 38572
SENTINEL-3A             
1 41335U 16011A   26176.56202152  .00000097  00000+0  58155-4 0  9993
2 41335  98.6246 243.8254 0001433  97.3499 262.7845 14.26734832539251
INSAT-3DR               
1 41752U 16054A   26176.53962662 -.00000067  00000+0  00000+0 0  9998
2 41752   0.1272  86.2665 0010091 187.1348 268.5095  1.00272346 35906
HIMAWARI-9              
1 41836U 16064A   26176.58169812  .00000000  00000+0  00000+0 0  9999
2 41836   0.0232  31.5664 0001213  82.3320 149.9973  1.00269212 35295
GOES 16                 
1 41866U 16071A   26176.52367215 -.00000081  00000+0  00000+0 0  9991
2 41866   0.3627  85.5312 0000531   2.7428 269.2126  1.00272037 35188
FENGYUN 4A              
1 41882U 16077A   26176.40684241 -.00000349  00000+0  00000+0 0  9990
2 41882   2.3442  80.2022 0008245 152.3481 311.0776  1.00265099 35013
CYGFM05                 
1 41884U 16078A   26176.38733020  .00024617  00000+0  32926-3 0  9999
2 41884  34.9555 206.2760 0007999 226.8874 133.1182 15.56990968530030
CYGFM04                 
1 41885U 16078B   26176.33224667  .00033633  00000+0  37205-3 0  9990
2 41885  34.9306 173.9175 0007288 263.3111  96.6786 15.61922993530274
CYGFM02                 
1 41886U 16078C   26176.31716924  .00041033  00000+0  40163-3 0  9991
2 41886  34.9385 168.3136 0008266 265.2681  94.7102 15.64984175530440
CYGFM01                 
1 41887U 16078D   26176.43652675  .00026106  00000+0  34012-3 0  9997
2 41887  34.9386 206.9400 0007735 221.6360 138.3776 15.57683122529995
CYGFM08                 
1 41888U 16078E   26176.44573674  .00031715  00000+0  37195-3 0  9997
2 41888  34.9414 186.2381 0009125 250.2663 109.7078 15.60404106530261
CYGFM07                 
1 41890U 16078G   26176.34040011  .00031809  00000+0  37193-3 0  9995
2 41890  34.9428 175.2742 0007666 263.1104  96.8749 15.60497342530275
CYGFM03                 
1 41891U 16078H   26176.37541707  .00031781  00000+0  37173-3 0  9994
2 41891  34.9384 176.9757 0007324 252.1288 107.8639 15.60491965530257
